CCSDS_OMM_VERS = 2.0
CREATION_DATE  = 
ORIGINATOR     = 

OBJECT_NAME    = STARLINK-36927
OBJECT_ID      = 2026-037K
CENTER_NAME    = EARTH
REF_FRAME      = TEME
TIME_SYSTEM    = UTC
MEAN_ELEMENT_THEORY = SGP/SGP4

EPOCH          = 2026-03-18T14:00:01.000224
MEAN_MOTION    = 15.74571005
ECCENTRICITY   = .00013089
INCLINATION    = 42.9994
RA_OF_ASC_NODE = 144.0064
ARG_OF_PERICENTER = 277.3036
MEAN_ANOMALY   = 335.4830

EPHEMERIS_TYPE = 0
CLASSIFICATION_TYPE = U
NORAD_CAT_ID   = 67941
ELEMENT_SET_NO = 999
REV_AT_EPOCH   = 462
BSTAR          = -.14272345E-1
MEAN_MOTION_DOT = -.1871852E-1
MEAN_MOTION_DDOT = 0

CCSDS_OMM_VERS = 2.0
CREATION_DATE  = 
ORIGINATOR     = 

OBJECT_NAME    = STARLINK-36914
OBJECT_ID      = 2026-037L
CENTER_NAME    = EARTH
REF_FRAME      = TEME
TIME_SYSTEM    = UTC
MEAN_ELEMENT_THEORY = SGP/SGP4

EPOCH          = 2026-03-18T11:23:36.226176
MEAN_MOTION    = 15.82129224
ECCENTRICITY   = .00008794
INCLINATION    = 42.9979
RA_OF_ASC_NODE = 144.6525
ARG_OF_PERICENTER = 212.4452
MEAN_ANOMALY   = 147.6366

EPHEMERIS_TYPE = 0
CLASSIFICATION_TYPE = U
NORAD_CAT_ID   = 67942
ELEMENT_SET_NO = 999
REV_AT_EPOCH   = 464
BSTAR          = .19428262E-2
MEAN_MOTION_DOT = .431947E-2
MEAN_MOTION_DDOT = 0

CCSDS_OMM_VERS = 2.0
CREATION_DATE  = 
ORIGINATOR     = 

OBJECT_NAME    = STARLINK-36851
OBJECT_ID      = 2026-037M
CENTER_NAME    = EARTH
REF_FRAME      = TEME
TIME_SYSTEM    = UTC
MEAN_ELEMENT_THEORY = SGP/SGP4

EPOCH          = 2026-03-18T14:00:01.000224
MEAN_MOTION    = 15.75561209
ECCENTRICITY   = .00013364
INCLINATION    = 42.9993
RA_OF_ASC_NODE = 144.0240
ARG_OF_PERICENTER = 275.0454
MEAN_ANOMALY   = 330.8204

EPHEMERIS_TYPE = 0
CLASSIFICATION_TYPE = U
NORAD_CAT_ID   = 67943
ELEMENT_SET_NO = 999
REV_AT_EPOCH   = 462
BSTAR          = -.13684647E-1
MEAN_MOTION_DOT = -.187475E-1
MEAN_MOTION_DDOT = 0

CCSDS_OMM_VERS = 2.0
CREATION_DATE  = 
ORIGINATOR     = 

OBJECT_NAME    = STARLINK-36892
OBJECT_ID      = 2026-037N
CENTER_NAME    = EARTH
REF_FRAME      = TEME
TIME_SYSTEM    = UTC
MEAN_ELEMENT_THEORY = SGP/SGP4

EPOCH          = 2026-03-18T14:00:01.000224
MEAN_MOTION    = 15.76362795
ECCENTRICITY   = .00012315
INCLINATION    = 42.9993
RA_OF_ASC_NODE = 143.9927
ARG_OF_PERICENTER = 276.5646
MEAN_ANOMALY   = 342.0308

EPHEMERIS_TYPE = 0
CLASSIFICATION_TYPE = U
NORAD_CAT_ID   = 67944
ELEMENT_SET_NO = 999
REV_AT_EPOCH   = 462
BSTAR          = -.13200227E-1
MEAN_MOTION_DOT = -.1874224E-1
MEAN_MOTION_DDOT = 0

CCSDS_OMM_VERS = 2.0
CREATION_DATE  = 
ORIGINATOR     = 

OBJECT_NAME    = STARLINK-36908
OBJECT_ID      = 2026-037P
CENTER_NAME    = EARTH
REF_FRAME      = TEME
TIME_SYSTEM    = UTC
MEAN_ELEMENT_THEORY = SGP/SGP4

EPOCH          = 2026-03-17T21:40:10.477056
MEAN_MOTION    = 15.81758378
ECCENTRICITY   = .00013393
INCLINATION    = 42.9985
RA_OF_ASC_NODE = 148.1053
ARG_OF_PERICENTER = 333.9537
MEAN_ANOMALY   = 26.1268

EPHEMERIS_TYPE = 0
CLASSIFICATION_TYPE = U
NORAD_CAT_ID   = 67945
ELEMENT_SET_NO = 999
REV_AT_EPOCH   = 455
BSTAR          = .20122771E-2
MEAN_MOTION_DOT = .44015E-2
MEAN_MOTION_DDOT = 0

CCSDS_OMM_VERS = 2.0
CREATION_DATE  = 
ORIGINATOR     = 

OBJECT_NAME    = STARLINK-36909
OBJECT_ID      = 2026-037Q
CENTER_NAME    = EARTH
REF_FRAME      = TEME
TIME_SYSTEM    = UTC
MEAN_ELEMENT_THEORY = SGP/SGP4

EPOCH          = 2026-03-18T14:18:57.640608
MEAN_MOTION    = 15.82016412
ECCENTRICITY   = .00015961
INCLINATION    = 42.9982
RA_OF_ASC_NODE = 143.8420
ARG_OF_PERICENTER = 289.3786
MEAN_ANOMALY   = 70.6913

EPHEMERIS_TYPE = 0
CLASSIFICATION_TYPE = U
NORAD_CAT_ID   = 67946
ELEMENT_SET_NO = 999
REV_AT_EPOCH   = 466
BSTAR          = .16610872E-2
MEAN_MOTION_DOT = .36437E-2
MEAN_MOTION_DDOT = 0

CCSDS_OMM_VERS = 2.0
CREATION_DATE  = 
ORIGINATOR     = 

OBJECT_NAME    = STARLINK-36920
OBJECT_ID      = 2026-037R
CENTER_NAME    = EARTH
REF_FRAME      = TEME
TIME_SYSTEM    = UTC
MEAN_ELEMENT_THEORY = SGP/SGP4

EPOCH          = 2026-03-18T14:00:01.000224
MEAN_MOTION    = 15.72512213
ECCENTRICITY   = .00011371
INCLINATION    = 42.9996
RA_OF_ASC_NODE = 144.0116
ARG_OF_PERICENTER = 273.1078
MEAN_ANOMALY   = 337.5087

EPHEMERIS_TYPE = 0
CLASSIFICATION_TYPE = U
NORAD_CAT_ID   = 67947
ELEMENT_SET_NO = 999
REV_AT_EPOCH   = 462
BSTAR          = -.15603392E-1
MEAN_MOTION_DOT = -.1870659E-1
MEAN_MOTION_DDOT = 0

CCSDS_OMM_VERS = 2.0
CREATION_DATE  = 
ORIGINATOR     = 

OBJECT_NAME    = STARLINK-36873
OBJECT_ID      = 2026-037S
CENTER_NAME    = EARTH
REF_FRAME      = TEME
TIME_SYSTEM    = UTC
MEAN_ELEMENT_THEORY = SGP/SGP4

EPOCH          = 2026-03-18T14:00:01.000224
MEAN_MOTION    = 15.71264504
ECCENTRICITY   = .0001222
INCLINATION    = 42.9996
RA_OF_ASC_NODE = 144.0276
ARG_OF_PERICENTER = 277.4231
MEAN_ANOMALY   = 326.6192

EPHEMERIS_TYPE = 0
CLASSIFICATION_TYPE = U
NORAD_CAT_ID   = 67948
ELEMENT_SET_NO = 999
REV_AT_EPOCH   = 462
BSTAR          = -.16424414E-1
MEAN_MOTION_DOT = -.1904607E-1
MEAN_MOTION_DDOT = 0

CCSDS_OMM_VERS = 2.0
CREATION_DATE  = 
ORIGINATOR     = 

OBJECT_NAME    = STARLINK-36863
OBJECT_ID      = 2026-037T
CENTER_NAME    = EARTH
REF_FRAME      = TEME
TIME_SYSTEM    = UTC
MEAN_ELEMENT_THEORY = SGP/SGP4

EPOCH          = 2026-03-18T14:00:01.000224
MEAN_MOTION    = 15.75830012
ECCENTRICITY   = .00012283
INCLINATION    = 42.9991
RA_OF_ASC_NODE = 143.9343
ARG_OF_PERICENTER = 276.6420
MEAN_ANOMALY   = 4.8964

EPHEMERIS_TYPE = 0
CLASSIFICATION_TYPE = U
NORAD_CAT_ID   = 67949
ELEMENT_SET_NO = 999
REV_AT_EPOCH   = 462
BSTAR          = -.13488926E-1
MEAN_MOTION_DOT = -.1870689E-1
MEAN_MOTION_DDOT = 0

CCSDS_OMM_VERS = 2.0
CREATION_DATE  = 
ORIGINATOR     = 

OBJECT_NAME    = STARLINK-36887
OBJECT_ID      = 2026-037U
CENTER_NAME    = EARTH
REF_FRAME      = TEME
TIME_SYSTEM    = UTC
MEAN_ELEMENT_THEORY = SGP/SGP4

EPOCH          = 2026-03-18T14:00:01.000224
MEAN_MOTION    = 15.61725759
ECCENTRICITY   = .00014922
INCLINATION    = 42.9992
RA_OF_ASC_NODE = 144.3230
ARG_OF_PERICENTER = 289.6623
MEAN_ANOMALY   = 196.0595

EPHEMERIS_TYPE = 0
CLASSIFICATION_TYPE = U
NORAD_CAT_ID   = 67950
ELEMENT_SET_NO = 999
REV_AT_EPOCH   = 462
BSTAR          = -.23354496E-1
MEAN_MOTION_DOT = -.1841733E-1
MEAN_MOTION_DDOT = 0

CCSDS_OMM_VERS = 2.0
CREATION_DATE  = 
ORIGINATOR     = 

OBJECT_NAME    = STARLINK-36897
OBJECT_ID      = 2026-037V
CENTER_NAME    = EARTH
REF_FRAME      = TEME
TIME_SYSTEM    = UTC
MEAN_ELEMENT_THEORY = SGP/SGP4

EPOCH          = 2026-03-18T14:00:01.000224
MEAN_MOTION    = 15.74806745
ECCENTRICITY   = .00012953
INCLINATION    = 42.9992
RA_OF_ASC_NODE = 143.9276
ARG_OF_PERICENTER = 266.6953
MEAN_ANOMALY   = 17.5058

EPHEMERIS_TYPE = 0
CLASSIFICATION_TYPE = U
NORAD_CAT_ID   = 67951
ELEMENT_SET_NO = 999
REV_AT_EPOCH   = 462
BSTAR          = -.14110733E-1
MEAN_MOTION_DOT = -.1870228E-1
MEAN_MOTION_DDOT = 0

CCSDS_OMM_VERS = 2.0
CREATION_DATE  = 
ORIGINATOR     = 

OBJECT_NAME    = STARLINK-36381
OBJECT_ID      = 2026-037W
CENTER_NAME    = EARTH
REF_FRAME      = TEME
TIME_SYSTEM    = UTC
MEAN_ELEMENT_THEORY = SGP/SGP4

EPOCH          = 2026-03-16T13:42:14.443200
MEAN_MOTION    = 15.81938385
ECCENTRICITY   = .00010214
INCLINATION    = 42.9982
RA_OF_ASC_NODE = 156.1801
ARG_OF_PERICENTER = 306.5215
MEAN_ANOMALY   = 53.5562

EPHEMERIS_TYPE = 0
CLASSIFICATION_TYPE = U
NORAD_CAT_ID   = 67952
ELEMENT_SET_NO = 999
REV_AT_EPOCH   = 434
BSTAR          = -.12748186E-3
MEAN_MOTION_DOT = -.27192E-3
MEAN_MOTION_DDOT = 0

